ONEWEB-0656             
1 55817U 23029X   26187.67388375 -.00000003  00000+0 -38093-4 0  9994
2 55817  87.9195 270.5474 0002045  87.1754 272.9614 13.20769661163720
ONEWEB-0657             
1 55818U 23029Y   26187.33045440  .00000132  00000+0  29758-3 0  9999
2 55818  87.9183 301.1615 0002545  90.4379 269.7045 13.19726782161434
ONEWEB-0658             
1 55819U 23029Z   26187.70480194  .00000001  00000+0 -30510-4 0  9995
2 55819  87.9193 301.0643 0002173 110.2135 249.9232 13.19725859161492
ONEWEB-0660             
1 55820U 23029AA  26187.68891815 -.00000177  00000+0 -51080-3 0  9999
2 55820  87.8982 285.8140 0001774 108.0804 252.0519 13.14502046161965
ONEWEB-0661             
1 55821U 23029AB  26187.72382157  .00000190  00000+0  47863-3 0  9996
2 55821  87.8964 285.8482 0001729 105.5166 254.6155 13.14502350161959
ONEWEB-0662             
1 55822U 23029AC  26187.68258637 -.00000197  00000+0 -56496-3 0  9998
2 55822  87.8961 285.8624 0001789 107.4866 252.6460 13.14501921161993
ONEWEB-0663             
1 55823U 23029AD  26187.70614921  .00000045  00000+0  77895-4 0  9991
2 55823  87.9195 270.6120 0001982 111.4647 248.6698 13.20870986163722
ONEWEB-0664             
1 55824U 23029AE  26187.66044177  .00000082  00000+0  17032-3 0  9994
2 55824  87.9180 270.6004 0001557  97.0286 263.1025 13.20771357163711
ONEWEB-0665             
1 55825U 23029AF  26187.72064804  .00000173  00000+0  43153-3 0  9995
2 55825  87.8963 285.8297 0001873 110.7455 249.3875 13.14502344161970
ONEWEB-0666             
1 55826U 23029AG  26187.72945176  .00000085  00000+0  17641-3 0  9991
2 55826  87.9181 270.5768 0002666  90.5586 269.5853 13.20772356163734
ONEWEB-0667             
1 55827U 23029AH  26187.72440167  .00000036  00000+0  57251-4 0  9990
2 55827  87.9197 270.5385 0001923 102.3937 257.7411 13.20772972163726
ONEWEB-0669             
1 55828U 23029AJ  26187.71934472  .00000054  00000+0  10210-3 0  9990
2 55828  87.9188 270.5494 0001836  84.3156 275.8186 13.20772930163727
ONEWEB-0670             
1 55829U 23029AK  26187.69844172 -.00000117  00000+0 -34935-3 0  9997
2 55829  87.8959 285.8514 0001573 102.1191 258.0115 13.14501690161999
ONEWEB-0671             
1 55830U 23029AL  26187.70005399  .00000003  00000+0 -26088-4 0  9995
2 55830  87.9185 301.0893 0001826 104.0526 256.0809 13.19725926161474
ONEWEB-0672             
1 55831U 23029AM  26187.71428954 -.00000162  00000+0 -43139-3 0  9995
2 55831  87.9190 270.5439 0002202  92.6503 267.4883 13.20770280163726
ONEWEB-0673             
1 55832U 23029AN  26187.67714490 -.00000129  00000+0 -35464-3 0  9999
2 55832  87.9192 301.0868 0001832 103.1961 256.9376 13.19723976161477
