{"fetched_at":"2026-07-07T07:58:10.717Z","source":"https://celestrak.org/NORAD/elements/gp.php?GROUP=oneweb&FORMAT=JSON","constellation":"oneweb","records":[{"OBJECT_NAME":"ONEWEB-0656","OBJECT_ID":"2023-029X","EPOCH":"2026-07-06T16:10:23.556000","CLASSIFICATION_TYPE":"U","MEAN_MOTION":13.20769661,"ECCENTRICITY":0.0002045,"INCLINATION":87.9195,"RA_OF_ASC_NODE":270.5474,"ARG_OF_PERICENTER":87.1754,"MEAN_ANOMALY":272.9614,"EPHEMERIS_TYPE":0,"NORAD_CAT_ID":55817,"ELEMENT_SET_NO":999,"REV_AT_EPOCH":16372,"BSTAR":-0.000038093,"MEAN_MOTION_DOT":-3e-8,"MEAN_MOTION_DDOT":0},{"OBJECT_NAME":"ONEWEB-0657","OBJECT_ID":"2023-029Y","EPOCH":"2026-07-06T07:55:51.260160","CLASSIFICATION_TYPE":"U","MEAN_MOTION":13.19726782,"ECCENTRICITY":0.0002545,"INCLINATION":87.9183,"RA_OF_ASC_NODE":301.1615,"ARG_OF_PERICENTER":90.4379,"MEAN_ANOMALY":269.7045,"EPHEMERIS_TYPE":0,"NORAD_CAT_ID":55818,"ELEMENT_SET_NO":999,"REV_AT_EPOCH":16143,"BSTAR":0.00029757606,"MEAN_MOTION_DOT":0.00000132,"MEAN_MOTION_DDOT":0},{"OBJECT_NAME":"ONEWEB-0658","OBJECT_ID":"2023-029Z","EPOCH":"2026-07-06T16:54:54.887616","CLASSIFICATION_TYPE":"U","MEAN_MOTION":13.19725859,"ECCENTRICITY":0.0002173,"INCLINATION":87.9193,"RA_OF_ASC_NODE":301.0643,"ARG_OF_PERICENTER":110.2135,"MEAN_ANOMALY":249.9232,"EPHEMERIS_TYPE":0,"NORAD_CAT_ID":55819,"ELEMENT_SET_NO":999,"REV_AT_EPOCH":16149,"BSTAR":-0.00003051,"MEAN_MOTION_DOT":1e-8,"MEAN_MOTION_DDOT":0},{"OBJECT_NAME":"ONEWEB-0660","OBJECT_ID":"2023-029AA","EPOCH":"2026-07-06T16:32:02.528160","CLASSIFICATION_TYPE":"U","MEAN_MOTION":13.14502046,"ECCENTRICITY":0.0001774,"INCLINATION":87.8982,"RA_OF_ASC_NODE":285.814,"ARG_OF_PERICENTER":108.0804,"MEAN_ANOMALY":252.0519,"EPHEMERIS_TYPE":0,"NORAD_CAT_ID":55820,"ELEMENT_SET_NO":999,"REV_AT_EPOCH":16196,"BSTAR":-0.0005108,"MEAN_MOTION_DOT":-0.00000177,"MEAN_MOTION_DDOT":0},{"OBJECT_NAME":"ONEWEB-0661","OBJECT_ID":"2023-029AB","EPOCH":"2026-07-06T17:22:18.183648","CLASSIFICATION_TYPE":"U","MEAN_MOTION":13.1450235,"ECCENTRICITY":0.0001729,"INCLINATION":87.8964,"RA_OF_ASC_NODE":285.8482,"ARG_OF_PERICENTER":105.5166,"MEAN_ANOMALY":254.6155,"EPHEMERIS_TYPE":0,"NORAD_CAT_ID":55821,"ELEMENT_SET_NO":999,"REV_AT_EPOCH":16195,"BSTAR":0.00047863,"MEAN_MOTION_DOT":0.0000019,"MEAN_MOTION_DDOT":0},{"OBJECT_NAME":"ONEWEB-0662","OBJECT_ID":"2023-029AC","EPOCH":"2026-07-06T16:22:55.462368","CLASSIFICATION_TYPE":"U","MEAN_MOTION":13.14501921,"ECCENTRICITY":0.0001789,"INCLINATION":87.8961,"RA_OF_ASC_NODE":285.8624,"ARG_OF_PERICENTER":107.4866,"MEAN_ANOMALY":252.646,"EPHEMERIS_TYPE":0,"NORAD_CAT_ID":55822,"ELEMENT_SET_NO":999,"REV_AT_EPOCH":16199,"BSTAR":-0.00056496,"MEAN_MOTION_DOT":-0.00000197,"MEAN_MOTION_DDOT":0},{"OBJECT_NAME":"ONEWEB-0663","OBJECT_ID":"2023-029AD","EPOCH":"2026-07-06T16:56:51.291744","CLASSIFICATION_TYPE":"U","MEAN_MOTION":13.20870986,"ECCENTRICITY":0.0001982,"INCLINATION":87.9195,"RA_OF_ASC_NODE":270.612,"ARG_OF_PERICENTER":111.4647,"MEAN_ANOMALY":248.6698,"EPHEMERIS_TYPE":0,"NORAD_CAT_ID":55823,"ELEMENT_SET_NO":999,"REV_AT_EPOCH":16372,"BSTAR":0.000077895,"MEAN_MOTION_DOT":4.5e-7,"MEAN_MOTION_DDOT":0},{"OBJECT_NAME":"ONEWEB-0664","OBJECT_ID":"2023-029AE","EPOCH":"2026-07-06T15:51:02.168928","CLASSIFICATION_TYPE":"U","MEAN_MOTION":13.20771357,"ECCENTRICITY":0.0001557,"INCLINATION":87.918,"RA_OF_ASC_NODE":270.6004,"ARG_OF_PERICENTER":97.0286,"MEAN_ANOMALY":263.1025,"EPHEMERIS_TYPE":0,"NORAD_CAT_ID":55824,"ELEMENT_SET_NO":999,"REV_AT_EPOCH":16371,"BSTAR":0.00017032,"MEAN_MOTION_DOT":8.2e-7,"MEAN_MOTION_DDOT":0},{"OBJECT_NAME":"ONEWEB-0665","OBJECT_ID":"2023-029AF","EPOCH":"2026-07-06T17:17:43.990656","CLASSIFICATION_TYPE":"U","MEAN_MOTION":13.14502344,"ECCENTRICITY":0.0001873,"INCLINATION":87.8963,"RA_OF_ASC_NODE":285.8297,"ARG_OF_PERICENTER":110.7455,"MEAN_ANOMALY":249.3875,"EPHEMERIS_TYPE":0,"NORAD_CAT_ID":55825,"ELEMENT_SET_NO":999,"REV_AT_EPOCH":16197,"BSTAR":0.00043153,"MEAN_MOTION_DOT":0.00000173,"MEAN_MOTION_DDOT":0},{"OBJECT_NAME":"ONEWEB-0666","OBJECT_ID":"2023-029AG","EPOCH":"2026-07-06T17:30:24.632064","CLASSIFICATION_TYPE":"U","MEAN_MOTION":13.20772356,"ECCENTRICITY":0.0002666,"INCLINATION":87.9181,"RA_OF_ASC_NODE":270.5768,"ARG_OF_PERICENTER":90.5586,"MEAN_ANOMALY":269.5853,"EPHEMERIS_TYPE":0,"NORAD_CAT_ID":55826,"ELEMENT_SET_NO":999,"REV_AT_EPOCH":16373,"BSTAR":0.00017641,"MEAN_MOTION_DOT":8.5e-7,"MEAN_MOTION_DDOT":0},{"OBJECT_NAME":"ONEWEB-0667","OBJECT_ID":"2023-029AH","EPOCH":"2026-07-06T17:23:08.304288","CLASSIFICATION_TYPE":"U","MEAN_MOTION":13.20772972,"ECCENTRICITY":0.0001923,"INCLINATION":87.9197,"RA_OF_ASC_NODE":270.5385,"ARG_OF_PERICENTER":102.3937,"MEAN_ANOMALY":257.7411,"EPHEMERIS_TYPE":0,"NORAD_CAT_ID":55827,"ELEMENT_SET_NO":999,"REV_AT_EPOCH":16372,"BSTAR":0.000057251,"MEAN_MOTION_DOT":3.6e-7,"MEAN_MOTION_DDOT":0},{"OBJECT_NAME":"ONEWEB-0669","OBJECT_ID":"2023-029AJ","EPOCH":"2026-07-06T17:15:51.383808","CLASSIFICATION_TYPE":"U","MEAN_MOTION":13.2077293,"ECCENTRICITY":0.0001836,"INCLINATION":87.9188,"RA_OF_ASC_NODE":270.5494,"ARG_OF_PERICENTER":84.3156,"MEAN_ANOMALY":275.8186,"EPHEMERIS_TYPE":0,"NORAD_CAT_ID":55828,"ELEMENT_SET_NO":999,"REV_AT_EPOCH":16372,"BSTAR":0.0001021,"MEAN_MOTION_DOT":5.4e-7,"MEAN_MOTION_DDOT":0},{"OBJECT_NAME":"ONEWEB-0670","OBJECT_ID":"2023-029AK","EPOCH":"2026-07-06T16:45:45.364608","CLASSIFICATION_TYPE":"U","MEAN_MOTION":13.1450169,"ECCENTRICITY":0.0001573,"INCLINATION":87.8959,"RA_OF_ASC_NODE":285.8514,"ARG_OF_PERICENTER":102.1191,"MEAN_ANOMALY":258.0115,"EPHEMERIS_TYPE":0,"NORAD_CAT_ID":55829,"ELEMENT_SET_NO":999,"REV_AT_EPOCH":16199,"BSTAR":-0.00034935,"MEAN_MOTION_DOT":-0.00000117,"MEAN_MOTION_DDOT":0},{"OBJECT_NAME":"ONEWEB-0671","OBJECT_ID":"2023-029AL","EPOCH":"2026-07-06T16:48:04.664736","CLASSIFICATION_TYPE":"U","MEAN_MOTION":13.19725926,"ECCENTRICITY":0.0001826,"INCLINATION":87.9185,"RA_OF_ASC_NODE":301.0893,"ARG_OF_PERICENTER":104.0526,"MEAN_ANOMALY":256.0809,"EPHEMERIS_TYPE":0,"NORAD_CAT_ID":55830,"ELEMENT_SET_NO":999,"REV_AT_EPOCH":16147,"BSTAR":-0.000026088,"MEAN_MOTION_DOT":3e-8,"MEAN_MOTION_DDOT":0},{"OBJECT_NAME":"ONEWEB-0672","OBJECT_ID":"2023-029AM","EPOCH":"2026-07-06T17:08:34.616256","CLASSIFICATION_TYPE":"U","MEAN_MOTION":13.2077028,"ECCENTRICITY":0.0002202,"INCLINATION":87.919,"RA_OF_ASC_NODE":270.5439,"ARG_OF_PERICENTER":92.6503,"MEAN_ANOMALY":267.4883,"EPHEMERIS_TYPE":0,"NORAD_CAT_ID":55831,"ELEMENT_SET_NO":999,"REV_AT_EPOCH":16372,"BSTAR":-0.00043139,"MEAN_MOTION_DOT":-0.00000162,"MEAN_MOTION_DDOT":0},{"OBJECT_NAME":"ONEWEB-0673","OBJECT_ID":"2023-029AN","EPOCH":"2026-07-06T16:15:05.319360","CLASSIFICATION_TYPE":"U","MEAN_MOTION":13.19723976,"ECCENTRICITY":0.0001832,"INCLINATION":87.9192,"RA_OF_ASC_NODE":301.0868,"ARG_OF_PERICENTER":103.1961,"MEAN_ANOMALY":256.9376,"EPHEMERIS_TYPE":0,"NORAD_CAT_ID":55832,"ELEMENT_SET_NO":999,"REV_AT_EPOCH":16147,"BSTAR":-0.00035464,"MEAN_MOTION_DOT":-0.00000129,"MEAN_MOTION_DDOT":0}]}
